STARLINK-1128           
1 44931U 20001T   24052.77095674  .00069336  00000+0  28205-2 0  9997
2 44931  53.0554  68.3321 0008549  78.1836 282.0119 15.23880601228455
STARLINK-1130 (DARKSAT) 
1 44932U 20001U   24052.51347916 -.00001483  00000+0 -80734-4 0  9997
2 44932  53.0539 100.8233 0001493  79.3554 280.7603 15.06383150228466
STARLINK-1144           
1 44933U 20001V   24052.40656659  .00005357  00000+0  37819-3 0  9990
2 44933  53.0536 101.3028 0001492  91.9822 268.1338 15.06403804228508
STARLINK-1071           
1 44934U 20001W   24052.35311561  .00004756  00000+0  33789-3 0  9999
2 44934  53.0530  81.5417 0001247  93.1925 266.9206 15.06409321227486
STARLINK-1079           
1 44937U 20001Z   24052.76306634  .00019605  00000+0  12561-2 0  9995
2 44937  53.0534  79.3652 0002362  61.8979 298.2250 15.08552829227558
STARLINK-1082           
1 44938U 20001AA  24052.76226647 -.00000514  00000+0 -15626-4 0  9999
2 44938  53.0544  79.7068 0001255  83.4430 276.6702 15.06392542227540
STARLINK-1083           
1 44939U 20001AB  24052.76962820 -.00000350  00000+0 -46150-5 0  9995
2 44939  53.0544  79.6742 0001405  94.6214 265.4935 15.06398222227545
STARLINK-1091           
1 44940U 20001AC  24052.38260741  .00000125  00000+0  27278-4 0  9995
2 44940  53.0539  81.4072 0001463  90.1296 269.9860 15.06395937227482
STARLINK-1094           
1 44941U 20001AD  24052.33836752 -.00003015  00000+0 -18369-3 0  9995
2 44941  53.0535  81.6121 0001183  90.8154 269.2971 15.06388649227483
STARLINK-1096           
1 44942U 20001AE  24052.17631395  .00013463  00000+0  51720-3 0  9998
2 44942  53.0130  32.5966 0000754 231.3014 128.7916 15.26751248228162
STARLINK-1100           
1 44943U 20001AF  24052.50054906  .00000651  00000+0  62615-4 0  9994
2 44943  53.0544  80.8795 0001430  94.1051 266.0102 15.06407893227508
STARLINK-1108           
1 44944U 20001AG  24052.34943199  .00008899  00000+0  61535-3 0  9999
2 44944  53.0528  81.5592 0001348  94.4361 265.6782 15.06411054227489
STARLINK-1109           
1 44945U 20001AH  24052.77700515 -.00000599  00000+0 -21299-4 0  9995
2 44945  53.0536  79.6404 0001243  87.3424 272.7707 15.06394599227541
STARLINK-1110           
1 44946U 20001AJ  24052.91667824  .00153577  00000+0  93449-3 0  9995
2 44946  53.0076 293.4756 0006897 133.3978 268.2090 15.76478610229555
STARLINK-1122           
1 44949U 20001AM  24052.36049424  .00003528  00000+0  25559-3 0  9994
2 44949  53.0530  81.5110 0001632  91.0648 269.0528 15.06407025227489
STARLINK-1126           
1 44951U 20001AP  24052.10129854  .00088004  00000+0  73549-3 0  9999
2 44951  53.0111 296.2455 0007179 154.6764 205.4605 15.69281726230730
STARLINK-1117           
1 44952U 20001AQ  24052.80647204  .00010784  00000+0  74108-3 0  9993
2 44952  53.0561  79.5072 0001509  80.6795 279.4365 15.06433318227557
STARLINK-1066           
1 44954U 20001AS  24052.70513129 -.00000024  00000+0  17286-4 0  9994
2 44954  53.0558  59.9605 0001449  90.4948 269.6207 15.06394245227765
STARLINK-1076           
1 44959U 20001AX  24052.74936065  .00000222  00000+0  33812-4 0  9993
2 44959  53.0548  59.7616 0001588  85.2932 274.8239 15.06395959227821
STARLINK-1080           
1 44961U 20001AZ  24052.29230320  .00001745  00000+0  13599-3 0  9997
2 44961  53.0549  61.8122 0001282  88.4530 271.6606 15.06401594227760
STARLINK-1088           
1 44966U 20001BE  24052.20850109  .00020028  00000+0  81467-3 0  9990
2 44966  53.0712  32.8898 0004213  37.7733 322.3559 15.24531107228164
STARLINK-1089           
1 44967U 20001BF  24052.29966739  .00001191  00000+0  98831-4 0  9991
2 44967  53.0545  61.7813 0001426  86.0712 274.0440 15.06407049227768
STARLINK-1090           
1 44968U 20001BG  24052.29598700  .00001544  00000+0  12251-3 0  9994
2 44968  53.0554  61.7964 0001040  94.6399 265.4708 15.06401421227763
STARLINK-1092           
1 44969U 20001BH  24052.75304914  .00000729  00000+0  67837-4 0  9993
2 44969  53.0534  59.7469 0001560  89.3358 270.7810 15.06391761227827
STARLINK-1093           
1 44970U 20001BJ  24052.33285166  .00001128  00000+0  94588-4 0  9993
2 44970  53.0558  61.6348 0001591 102.6605 257.4562 15.06400837227754
STARLINK-1107           
1 44972U 20001BL  24052.30335336 -.00000024  00000+0  17278-4 0  9993
2 44972  53.0540  61.7664 0001341  86.7972 273.3170 15.06397357227766
STARLINK-1115           
1 44973U 20001BM  24052.74567870  .00000242  00000+0  35145-4 0  9996
2 44973  53.0552  59.7817 0001652  86.9294 273.1884 15.06396724227825
STARLINK-1132           
1 45044U 20006A   24052.18909793  .00011047  00000+0  75902-3 0  9992
2 45044  53.0547  22.2784 0001548  93.2432 266.8734 15.06416860224077
STARLINK-1120           
1 45045U 20006B   24052.58334491  .00940544  00000+0  44384-1 0  9995
2 45045  53.0535  40.3430 0001262 103.6379  32.5253 15.16212782  5768
STARLINK-1131           
1 45047U 20006D   24052.28580050  .00002302  00000+0  17337-3 0  9999
2 45047  53.0554  41.5643 0001625  95.8803 264.2371 15.06402327223815
STARLINK-1134           
1 45048U 20006E   24052.25359777  .00001617  00000+0  12740-3 0  9998
2 45048  53.0539  41.9885 0001352  89.5068 270.6076 15.06404366223808
STARLINK-1135           
1 45049U 20006F   24052.53058801  .00014836  00000+0  51577-3 0  9992
2 45049  53.0900 342.5268 0003695  26.5553 333.5636 15.29958203225035
STARLINK-1140           
1 45050U 20006G   24052.66274320 -.00000141  00000+0  94317-5 0  9990
2 45050  53.0539  40.1531 0001670  81.1252 278.9926 15.06397423224201
STARLINK-1148           
1 45052U 20006J   24052.67011698  .00001558  00000+0  12345-3 0  9991
2 45052  53.0539  40.1185 0001387  89.4967 270.6180 15.06394338224200
STARLINK-1155           
1 45053U 20006K   24052.36426283  .00024526  00000+0  52990-3 0  9998
2 45053  52.9851 293.5253 0003736  50.7453 309.3883 15.44393985225263
STARLINK-1156           
1 45054U 20006L   24052.26834738  .00002783  00000+0  20567-3 0  9992
2 45054  53.0542  41.9224 0001537  89.2798 270.8367 15.06400525223806
STARLINK-1159           
1 45057U 20006P   24052.68116901 -.00000657  00000+0 -25186-4 0  9999
2 45057  53.0559  40.0654 0001340  89.8751 270.2391 15.06399219224215
STARLINK-1162           
1 45058U 20006Q   24052.67378090  .00000636  00000+0  61550-4 0  9998
2 45058  53.0553  40.1060 0001631  84.8390 275.2785 15.06409173224212
STARLINK-1165           
1 45059U 20006R   24052.69591392  .00010806  00000+0  74303-3 0  9992
2 45059  53.0550  40.0029 0001439  92.6701 267.4452 15.06408096224210
STARLINK-1166           
1 45060U 20006S   24052.69223251  .00000044  00000+0  21840-4 0  9992
2 45060  53.0553  40.0182 0001429  90.8233 269.2920 15.06392840224213
STARLINK-1169           
1 45061U 20006T   24052.23517219  .00004398  00000+0  31396-3 0  9995
2 45061  53.0546  42.0677 0001354  86.9213 273.1931 15.06400483223801
STARLINK-1171           
1 45062U 20006U   24052.28677637  .00000953  00000+0  82850-4 0  9997
2 45062  53.0558  41.8400 0001602  98.5600 261.5570 15.06395254223811
STARLINK-1133           
1 45064U 20006W   24052.63141801  .00002017  00000+0  15426-3 0  9994
2 45064  53.0547  20.2900 0001609  94.1166 266.0007 15.06399313224493
STARLINK-1139           
1 45065U 20006X   24052.57516693  .00052104  00000+0  21037-2 0  9999
2 45065  53.0657   1.7959 0006575 128.9551 231.2033 15.24277571224400
STARLINK-1145           
1 45066U 20006Y   24052.60929980  .00000573  00000+0  57367-4 0  9991
2 45066  53.0547  20.3932 0001413  84.6136 275.5014 15.06392812224473
STARLINK-1150           
1 45067U 20006Z   24052.22595974  .00000399  00000+0  45684-4 0  9997
2 45067  53.0555  22.1138 0001638  97.1846 262.9329 15.06398918224086
STARLINK-1161           
1 45068U 20006AA  24052.33188148 -.00000446  00000+0 -11021-4 0  9994
2 45068  53.0562  21.5030 0001353  90.8406 269.2738 15.06394930224090
STARLINK-1167           
1 45071U 20006AD  24052.12643362  .00006461  00000+0  45215-3 0  9991
2 45071  53.0543  22.5590 0001520  96.4854 263.6309 15.06410550224066
STARLINK-1168           
1 45072U 20006AE  24052.19646750  .00011782  00000+0  80818-3 0  9993
2 45072  53.0552  22.2444 0001495  96.7729 263.3430 15.06415619224071
STARLINK-1170           
1 45073U 20006AF  24052.62035882  .00006056  00000+0  42514-3 0  9999
2 45073  53.0554  20.3399 0001495  87.8155 272.3005 15.06399055224473
STARLINK-1172           
1 45074U 20006AG  24052.60560883  .00002491  00000+0  18604-3 0  9994
2 45074  53.0545  20.4072 0001478  99.4026 260.7130 15.06399640224470
STARLINK-1174           
1 45075U 20006AH  24052.17435524  .00005480  00000+0  38653-3 0  9997
2 45075  53.0545  22.3432 0001586  92.5793 267.5378 15.06397634224073
STARLINK-1180           
1 45076U 20006AJ  24052.18077519  .00014132  00000+0  96584-3 0  9996
2 45076  53.0543  22.3048 0001530  97.7083 262.4079 15.06395165224072
STARLINK-1177           
1 45078U 20006AL  24052.59824313  .00004034  00000+0  28956-3 0  9993
2 45078  53.0551  20.4414 0001464  83.9405 276.1751 15.06395927224121
STARLINK-1149           
1 45079U 20006AM  24052.64152287 -.00000834  00000+0 -37122-4 0  9996
2 45079  53.0570  20.2353 0001397  99.0389 261.0758 15.06398023224138
STARLINK-1153           
1 45080U 20006AN  24052.18541446  .00006503  00000+0  45503-3 0  9994
2 45080  53.0547  22.2949 0001330  77.4067 282.7071 15.06401740224079
STARLINK-1151           
1 45081U 20006AP  24052.63511253  .00005594  00000+0  39416-3 0  9993
2 45081  53.0540  20.3524 0001882  85.5073 274.6131 15.06396673224491
STARLINK-1160           
1 45082U 20006AQ  24052.61572431  .00002350  00000+0  17664-3 0  9995
2 45082  53.0544  20.3507 0001506  88.7564 271.3597 15.06395426224484
STARLINK-1190           
1 45083U 20006AR  24052.24991080  .00001335  00000+0  10850-3 0  9992
2 45083  53.0557  42.0047 0001438  89.8379 270.2774 15.06403108223806
